{
    "links": {
        "self": "http://www.neowsapp.com/rest/v1/neo/54049769?api_key=iIulBulltgU6a56xZRHN4H3l9WmuAYTsLGpBGhQ2"
    },
    "id": "54049769",
    "neo_reference_id": "54049769",
    "name": "(2020 OH4)",
    "designation": "2020 OH4",
    "nasa_jpl_url": "http://ssd.jpl.nasa.gov/sbdb.cgi?sstr=54049769",
    "absolute_magnitude_h": 23.832,
    "estimated_diameter": {
        "kilometers": {
            "estimated_diameter_min": 0.045515045,
            "estimated_diameter_max": 0.1017747347
        },
        "meters": {
            "estimated_diameter_min": 45.5150450167,
            "estimated_diameter_max": 101.7747346563
        },
        "miles": {
            "estimated_diameter_min": 0.028281729,
            "estimated_diameter_max": 0.0632398686
        },
        "feet": {
            "estimated_diameter_min": 149.3275802926,
            "estimated_diameter_max": 333.9066204497
        }
    },
    "is_potentially_hazardous_asteroid": false,
    "close_approach_data": [
        {
            "close_approach_date": "1900-06-09",
            "close_approach_date_full": "1900-Jun-09 19:23",
            "epoch_date_close_approach": -2195181420000,
            "relative_velocity": {
                "kilometers_per_second": "16.6285148359",
                "kilometers_per_hour": "59862.6534093962",
                "miles_per_hour": "37196.3248365218"
            },
            "miss_distance": {
                "astronomical": "0.4881376446",
                "lunar": "189.8855437494",
                "kilometers": "73024351.898977002",
                "miles": "45375228.1927345476"
            },
            "orbiting_body": "Earth"
        },
        {
            "close_approach_date": "1983-08-13",
            "close_approach_date_full": "1983-Aug-13 04:20",
            "epoch_date_close_approach": 429596400000,
            "relative_velocity": {
                "kilometers_per_second": "10.3952133801",
                "kilometers_per_hour": "37422.768168481",
                "miles_per_hour": "23253.0528100208"
            },
            "miss_distance": {
                "astronomical": "0.231545042",
                "lunar": "90.071021338",
                "kilometers": "34638645.09226054",
                "miles": "21523456.004413852"
            },
            "orbiting_body": "Earth"
        },
        {
            "close_approach_date": "2020-07-17",
            "close_approach_date_full": "2020-Jul-17 06:27",
            "epoch_date_close_approach": 1594967220000,
            "relative_velocity": {
                "kilometers_per_second": "6.2437881869",
                "kilometers_per_hour": "22477.637472742",
                "miles_per_hour": "13966.7297952157"
            },
            "miss_distance": {
                "astronomical": "0.1565896604",
                "lunar": "60.9133778956",
                "kilometers": "23425479.659863348",
                "miles": "14555918.0937482824"
            },
            "orbiting_body": "Earth"
        },
        {
            "close_approach_date": "2023-08-23",
            "close_approach_date_full": "2023-Aug-23 22:55",
            "epoch_date_close_approach": 1692831300000,
            "relative_velocity": {
                "kilometers_per_second": "15.7081317351",
                "kilometers_per_hour": "56549.2742463344",
                "miles_per_hour": "35137.5198782293"
            },
            "miss_distance": {
                "astronomical": "0.4314934756",
                "lunar": "167.8509620084",
                "kilometers": "64550504.868656972",
                "miles": "40109823.8081393336"
            },
            "orbiting_body": "Earth"
        },
        {
            "close_approach_date": "2063-08-27",
            "close_approach_date_full": "2063-Aug-27 06:26",
            "epoch_date_close_approach": 2955421560000,
            "relative_velocity": {
                "kilometers_per_second": "16.5570210984",
                "kilometers_per_hour": "59605.2759541835",
                "miles_per_hour": "37036.4004949758"
            },
            "miss_distance": {
                "astronomical": "0.4501882523",
                "lunar": "175.1232301447",
                "kilometers": "67347203.643102601",
                "miles": "41847611.8442778538"
            },
            "orbiting_body": "Earth"
        }
    ],
    "orbital_data": {
        "orbit_id": "8",
        "orbit_determination_date": "2020-09-11 07:48:23",
        "first_observation_date": "2020-07-23",
        "last_observation_date": "2020-09-10",
        "data_arc_in_days": 49,
        "observations_used": 36,
        "orbit_uncertainty": "6",
        "minimum_orbit_intersection": ".121786",
        "jupiter_tisserand_invariant": "3.575",
        "epoch_osculation": "2459000.5",
        "eccentricity": ".4697732231805647",
        "semi_major_axis": "2.116812188173052",
        "inclination": "7.198389974524187",
        "ascending_node_longitude": "326.8026919816777",
        "orbital_period": "1124.92072481841",
        "perihelion_distance": "1.122390503667093",
        "perihelion_argument": "329.8884008908633",
        "aphelion_distance": "3.111233872679011",
        "perihelion_time": "2459044.563482651651",
        "mean_anomaly": "345.8986918770164",
        "mean_motion": ".3200225509740813",
        "equinox": "J2000",
        "orbit_class": {
            "orbit_class_type": "AMO",
            "orbit_class_description": "Near-Earth asteroid orbits similar to that of 1221 Amor",
            "orbit_class_range": "1.017 AU < q (perihelion) < 1.3 AU"
        }
    },
    "is_sentry_object": false
}